NORAD_CAT_ID,OBJECT_NAME,OBJECT_TYPE,EPOCH,MEAN_MOTION,ECCENTRICITY,INCLINATION,RA_OF_ASC_NODE,ARG_OF_PERICENTER,MEAN_ANOMALY,BSTAR,MEAN_MOTION_DOT,MEAN_MOTION_DDOT,TLE_LINE0,TLE_LINE1,TLE_LINE2,SEMIMAJOR_AXIS,PERIOD,APOGEE,PERIGEE,DECAYED
53793.0,STARLINK-4728,PAYLOAD,2022-12-23 03:09:22,15.088414300000002,0.0002178,53.2179,137.6503,43.7756,316.3408,-6.8755e-05,-1.382e-05,0.0,0 STARLINK-4728,1 53793U 22111W   22357.13151283 -.00001382  00000-0 -68755-4 0  9998,2 53793  53.2179 137.6503 0002178  43.7756 316.3408 15.08841430 15871,6917.876,95.437,541.248,538.234,0.0
53793.0,STARLINK-4728,PAYLOAD,2022-12-23 09:30:55,15.08836562,0.0001947,53.218,136.4607,41.1045,319.0094,8.494400000000001e-06,-1.53e-06,0.0,0 STARLINK-4728,1 53793U 22111W   22357.39647244 -.00000153  00000-0  84944-5 0  9996,2 53793  53.2180 136.4607 0001947  41.1045 319.0094 15.08836562 16716,6917.891,95.438,541.1030000000002,538.409,0.0
53793.0,STARLINK-4728,PAYLOAD,2022-12-23 15:52:27,15.08842507,0.0002072,53.2167,135.2725,41.5553,318.5596,6.349800000000001e-05,7.23e-06,0.0,0 STARLINK-4728,1 53793U 22111W   22357.66142664  .00000723  00000-0  63498-4 0  9994,2 53793  53.2167 135.2725 0002072  41.5553 318.5596 15.08842507 16758,6917.873000000001,95.437,541.1709999999998,538.304,0.0
53793.0,STARLINK-4728,PAYLOAD,2022-12-24 10:57:04,15.08842742,0.0002118,53.2161,131.7043,41.4079,318.7073,2.3961e-05,9.3e-07,0.0,0 STARLINK-4728,1 53793U 22111W   22358.45630609  .00000093  00000-0  23961-4 0  9994,2 53793  53.2161 131.7043 0002118  41.4079 318.7073 15.08842742 16875,6917.871999999999,95.437,541.202,538.2719999999998,0.0
53793.0,STARLINK-4728,PAYLOAD,2022-12-24 12:32:28,15.08837271,0.0002189,53.216,131.4072,43.09,317.0263,1.901e-06,-2.58e-06,0.0,0 STARLINK-4728,1 53793U 22111W   22358.52255145 -.00000258  00000-0  19010-5 0  9995,2 53793  53.2160 131.4072 0002189  43.0900 317.0263 15.08837271 16089,6917.889,95.438,541.268,538.239,0.0
53793.0,STARLINK-4728,PAYLOAD,2022-12-24 18:54:01,15.08836436,0.0002049,53.2169,130.2165,37.4767,322.6368,-8.254100000000001e-05,-1.602e-05,0.0,0 STARLINK-4728,1 53793U 22111W   22358.78751422 -.00001602  00000-0 -82541-4 0  9995,2 53793  53.2169 130.2165 0002049  37.4767 322.6368 15.08836436 16924,6917.891,95.438,541.174,538.339,0.0
53793.0,STARLINK-4728,PAYLOAD,2022-12-25 10:47:52,15.08850252,0.0002242,53.2165,127.2432,41.3281,318.788,-0.00018296,-3.2e-05,0.0,0 STARLINK-4728,1 53793U 22111W   22359.44991057 -.00003200  00000-0 -18296-3 0  9990,2 53793  53.2165 127.2432 0002242  41.3281 318.7880 15.08850252 17022,6917.849,95.437,541.265,538.163,0.0
53793.0,STARLINK-4728,PAYLOAD,2022-12-25 18:44:48,15.08834852,0.0002028,53.217,125.7559,38.3553,321.7583,-9.1829e-05,-1.749e-05,0.0,0 STARLINK-4728,1 53793U 22111W   22359.78111754 -.00001749  00000-0 -91829-4 0  9995,2 53793  53.2170 125.7559 0002028  38.3553 321.7583 15.08834852 16279,6917.896,95.438,541.164,538.3580000000002,0.0
53793.0,STARLINK-4728,PAYLOAD,2022-12-26 01:06:20,15.08845073,0.0002099,53.2174,124.5663,38.62300000000001,321.4912,-0.00010854,-2.016e-05,0.0,0 STARLINK-4728,1 53793U 22111W   22360.04607188 -.00002016  00000-0 -10854-3 0  9993,2 53793  53.2174 124.5663 0002099  38.6230 321.4912 15.08845073 16314,6917.865,95.437,541.182,538.278,0.0
53793.0,STARLINK-4728,PAYLOAD,2022-12-26 10:38:39,15.08832252,0.0002048,53.217,122.782,37.3409,322.7725,2.9100000000000013e-05,1.75e-06,0.0,0 STARLINK-4728,1 53793U 22111W   22360.44351590  .00000175  00000-0  29100-4 0  9997,2 53793  53.2170 122.7820 0002048  37.3409 322.7725 15.08832252 17179,6917.904,95.438,541.186,538.352,0.0
53793.0,STARLINK-4728,PAYLOAD,2022-12-26 17:00:12,15.0882851,0.0002062,53.2173,121.5926,36.7308,323.3825,-4.8029e-06,-3.65e-06,0.0,0 STARLINK-4728,1 53793U 22111W   22360.70848094 -.00000365  00000-0 -48029-5 0  9991,2 53793  53.2173 121.5926 0002062  36.7308 323.3825 15.08828510 16419,6917.916,95.438,541.207,538.354,0.0
53793.0,STARLINK-4728,PAYLOAD,2022-12-27 10:29:25,15.08845871,0.0001982,53.2175,118.3216,35.9924,324.1201,0.00013916,1.928e-05,0.0,0 STARLINK-4728,1 53793U 22111W   22361.43710454  .00001928  00000-0  13916-3 0  9999,2 53793  53.2175 118.3216 0001982  35.9924 324.1201 15.08845871 16520,6917.861999999999,95.437,541.099,538.356,0.0
53793.0,STARLINK-4728,PAYLOAD,2022-12-27 18:26:21,15.08845318,0.000202,53.2176,116.8348,36.325,323.7879,0.00012103,1.639e-05,0.0,0 STARLINK-4728,1 53793U 22111W   22361.76830445  .00001639  00000-0  12103-3 0  9994,2 53793  53.2176 116.8348 0002020  36.3250 323.7879 15.08845318 17377,6917.864000000001,95.437,541.127,538.332,0.0
53793.0,STARLINK-4728,PAYLOAD,2022-12-28 10:20:12,15.08844964,0.0002079,53.2167,113.8602,35.8929,324.2203,7.4855e-05,9.03e-06,0.0,0 STARLINK-4728,1 53793U 22111W   22362.43070369  .00000903  00000-0  74855-4 0  9996,2 53793  53.2167 113.8602 0002079  35.8929 324.2203 15.08844964 17472,6917.865,95.437,541.168,538.2919999999998,0.0
53793.0,STARLINK-4728,PAYLOAD,2022-12-29 00:38:42,15.08831768,0.0002228,53.2171,111.1848,35.5721,324.5419,-2.1594e-05,-6.32e-06,0.0,0 STARLINK-4728,1 53793U 22111W   22363.02687553 -.00000632  00000-0 -21594-4 0  9994,2 53793  53.2171 111.1848 0002228  35.5721 324.5419 15.08831768 16764,6917.906,95.438,541.312,538.229,0.0
53793.0,STARLINK-4728,PAYLOAD,2022-12-29 10:11:01,15.08833706,0.0001919,53.2176,109.3991,40.8106,319.303,-0.00029057,-4.909e-05,0.0,0 STARLINK-4728,1 53793U 22111W   22363.42432528 -.00004909  00000-0 -29057-3 0  9990,2 53793  53.2176 109.3991 0001919  40.8106 319.3030 15.08833706 16821,6917.9,95.438,541.092,538.437,0.0
53793.0,STARLINK-4728,PAYLOAD,2022-12-30 13:12:33,15.08839296,0.0002177,53.2173,104.3463,35.8364,324.2774,8.834799999999999e-05,1.118e-05,0.0,0 STARLINK-4728,1 53793U 22111W   22364.55039060  .00001118  00000-0  88348-4 0  9995,2 53793  53.2173 104.3463 0002177  35.8364 324.2774 15.08839296 16992,6917.8830000000025,95.438,541.254,538.242,0.0
53793.0,STARLINK-4728,PAYLOAD,2022-12-30 16:23:19,15.08849281,0.0002399999999999,53.2179,103.7511,32.9391,327.1751,0.00017837,2.552e-05,0.0,0 STARLINK-4728,1 53793U 22111W   22364.68286274  .00002552  00000-0  17837-3 0  9997,2 53793  53.2179 103.7511 0002400  32.9391 327.1751 15.08849281 17018,6917.852,95.437,541.377,538.057,0.0
53793.0,STARLINK-4728,PAYLOAD,2022-12-31 00:20:13,15.08861042,0.0001816,53.2177,102.2644,42.947,317.1664,0.0002466,3.641e-05,0.0,0 STARLINK-4728,1 53793U 22111W   22365.01404807  .00003641  00000-0  24660-3 0  9991,2 53793  53.2177 102.2644 0001816  42.9470 317.1664 15.08861042 17062,6917.816,95.436,540.937,538.425,0.0
53793.0,STARLINK-4728,PAYLOAD,2022-12-31 13:03:19,15.08845386,0.0002184,53.2173,99.8878,32.239000000000004,327.8735,0.00023916,3.521e-05,0.0,0 STARLINK-4728,1 53793U 22111W   22365.54397459  .00003521  00000-0  23916-3 0  9993,2 53793  53.2173  99.8878 0002184  32.2390 327.8735 15.08845386 17149,6917.864000000001,95.437,541.24,538.2180000000002,0.0
53793.0,STARLINK-4728,PAYLOAD,2022-12-31 16:14:05,15.08846511,0.0002145999999999,53.2179,99.2933,22.5863,337.5223,0.00017546,2.506e-05,0.0,0 STARLINK-4728,1 53793U 22111W   22365.67645461  .00002506  00000-0  17546-3 0  9990,2 53793  53.2179  99.2933 0002146  22.5863 337.5223 15.08846511 17967,6917.86,95.437,541.21,538.241,0.0
53793.0,STARLINK-4728,PAYLOAD,2023-01-01 06:32:35,15.08840906,0.0002269,53.2174,96.6124,38.6753,321.4402,-0.00014935,-2.665e-05,0.0,0 STARLINK-4728,1 53793U 22111W   23001.27263329 -.00002665  00000-0 -14935-3 0  9990,2 53793  53.2174  96.6124 0002269  38.6753 321.4402 15.08840906 17252,6917.878000000002,95.437,541.312,538.173,0.0
53793.0,STARLINK-4728,PAYLOAD,2023-01-01 14:29:32,15.08826115,0.0002355,53.2187,95.1301,33.5345,326.5796,-0.00033594,-5.629e-05,0.0,0 STARLINK-4728,1 53793U 22111W   23001.60385042 -.00005629  00000-0 -33594-3 0  9999,2 53793  53.2187  95.1301 0002355  33.5345 326.5796 15.08826115 17308,6917.9230000000025,95.438,541.4169999999998,538.159,0.0
53793.0,STARLINK-4728,PAYLOAD,2023-01-01 16:04:55,15.08826816,0.0002315,53.2184,94.831,33.3101,326.8036,-0.00030798,-5.185e-05,0.0,0 STARLINK-4728,1 53793U 22111W   23001.67008911 -.00005185  00000-0 -30798-3 0  9993,2 53793  53.2184  94.8310 0002315  33.3101 326.8036 15.08826816 18113,6917.920999999999,95.438,541.387,538.184,0.0
53793.0,STARLINK-4728,PAYLOAD,2023-01-02 06:23:23,15.08834363,0.0002316,53.218,92.1547,29.7421,330.3702,-0.00015166,-2.701e-05,0.0,0 STARLINK-4728,1 53793U 22111W   23002.26623958 -.00002701  00000-0 -15166-3 0  9996,2 53793  53.2180  92.1547 0002316  29.7421 330.3702 15.08834363 17404,6917.898,95.438,541.365,538.16,0.0
53793.0,STARLINK-4728,PAYLOAD,2023-01-02 12:44:55,15.08842525,0.0002349,53.2178,90.9657,29.9432,330.1694,-7.1285e-05,-1.423e-05,0.0,0 STARLINK-4728,1 53793U 22111W   23002.53119235 -.00001423  00000-0 -71285-4 0  9999,2 53793  53.2178  90.9657 0002349  29.9432 330.1694 15.08842525 17440,6917.873000000001,95.437,541.363,538.113,0.0
53793.0,STARLINK-4728,PAYLOAD,2023-01-02 22:17:14,15.08834849,0.0002396999999999,53.2173,89.1817,31.523000000000003,328.5906,-0.00012382,-2.258e-05,0.0,0 STARLINK-4728,1 53793U 22111W   23002.92864104 -.00002258  00000-0 -12382-3 0  9993,2 53793  53.2173  89.1817 0002397  31.5230 328.5906 15.08834849 17505,6917.896,95.438,541.419,538.1030000000002,0.0
53793.0,STARLINK-4728,PAYLOAD,2023-01-03 06:14:10,15.08812836,0.0002455,53.2179,87.6942,35.0215,325.0939,0.00014675,2.046e-05,0.0,0 STARLINK-4728,1 53793U 22111W   23003.25984791  .00002046  00000-0  14675-3 0  9995,2 53793  53.2179  87.6942 0002455  35.0215 325.0939 15.08812836 17555,6917.9630000000025,95.439,541.5269999999998,538.13,0.0
53793.0,STARLINK-4728,PAYLOAD,2023-01-03 12:35:43,15.08813122,0.0002439,53.2168,86.5056,32.4172,327.69699999999995,0.00015198,2.13e-05,0.0,0 STARLINK-4728,1 53793U 22111W   23003.52481182  .00002130  00000-0  15198-3 0  9996,2 53793  53.2168  86.5056 0002439  32.4172 327.6970 15.08813122 18397,6917.9630000000025,95.439,541.515,538.14,0.0
